COSMOS 2425 (716)       
1 29670U 06062A   21152.76438392 -.00000036  00000-0  00000-0 0  9991
2 29670  64.8465 255.9788 0023808 344.8965   9.2048  2.13117091112331
COSMOS 2433 (720)       
1 32275U 07052A   21155.62095830 -.00000073  00000-0  00000+0 0  9990
2 32275  66.0593  17.2115 0000903 277.7669 282.2888  2.13104152105916
COSMOS 2432 (719)       
1 32276U 07052B   21154.92416315 -.00000077  00000-0  00000-0 0  9993
2 32276  66.0736  17.3286 0010407 340.0379 354.7890  2.13103539105891
COSMOS 2434 (721)       
1 32393U 07065A   21155.61929057 -.00000045  00000-0  00000-0 0  9991
2 32393  64.4633 254.3464 0003149  99.3272 347.8113  2.13103096104620
COSMOS 2436 (723)       
1 32395U 07065C   21155.79880297 -.00000044  00000-0  00000-0 0  9993
2 32395  64.4732 254.3930 0014427   1.3766 359.5868  2.13103054104566
COSMOS 2456 (730)       
1 36111U 09070A   21155.41877103  .00000072  00000-0  00000-0 0  9992
2 36111  64.2755 134.0299 0006321 304.6562 159.3623  2.13099270 89288
COSMOS 2457 (733)       
1 36112U 09070B   21155.93656941  .00000069  00000-0  00000-0 0  9991
2 36112  64.2586 133.8971 0004339 196.8208  68.7129  2.13101406 89290
COSMOS 2459 (731)       
1 36400U 10007A   21155.31507714 -.00000074  00000-0  00000-0 0  9995
2 36400  65.9563  16.1479 0026044 351.9441 190.7287  2.13108382 87625
COSMOS 2461 (735)       
1 36401U 10007B   21155.31507714 -.00000074  00000-0  00000-0 0  9996
2 36401  65.9506  16.1121 0021364  11.3662 171.9992  2.13103871 87632
COSMOS 2460 (732)       
1 36402U 10007C   21155.85498293 -.00000072  00000-0  00000-0 0  9995
2 36402  65.9391  16.0504 0002171  55.9691 126.2609  2.13106563 87640
COSMOS 2464 (736)       
1 37139U 10041C   21155.72845178 -.00000044  00000-0  00000-0 0  9994
2 37139  64.0645 253.6060 0027301  11.2883  20.6053  2.13100721 83709
COSMOS 2471 (701K)      
1 37372U 11009A   21155.33184333 -.00000074  00000-0  00000-0 0  9997
2 37372  65.9321  15.9944 0014269 227.2396  66.6443  2.13052269 79909
COSMOS 2476 (744)       
1 37867U 11064A   21155.79511867  .00000073  00000-0  00000-0 0  9991
2 37867  64.5715 135.2269 0022200 241.9080  53.0833  2.13101894 74630
COSMOS 2477 (745)       
1 37868U 11064B   21155.59111080  .00000074  00000-0  00000-0 0  9994
2 37868  64.5782 135.2923 0019817 243.8682  72.9366  2.13101713 74586
COSMOS 2475 (743)       
1 37869U 11064C   21155.59224568  .00000074  00000-0  00000-0 0  9991
2 37869  64.5850 135.2979 0024345 261.1229  14.2224  2.13101981 74596
COSMOS 2485 (747)       
1 39155U 13019A   21155.73118602  .00000074  00000-0  00000-0 0  9990
2 39155  64.7364 135.5736 0022681 238.1211  52.2890  2.13101935 63103
COSMOS 2492 (754)       
1 39620U 14012A   21155.76407861 -.00000072  00000-0  00000-0 0  9991
2 39620  65.8278  15.7879 0013212 333.3968  17.0730  2.13103214 56050
COSMOS 2500 (755)       
1 40001U 14032A   21155.01759132 -.00000076  00000-0  00000-0 0  9991
2 40001  65.7659  15.7018 0004628 190.3818 167.0909  2.13102498 54255
COSMOS 2501 (702K)      
1 40315U 14075A   21155.59284716 -.00000046  00000-0  00000-0 0  9997
2 40315  63.7758 254.4226 0017430 208.5641  36.5200  2.13101485 50676
COSMOS 2514 (751)       
1 41330U 16008A   21155.50876172 -.00000074  00000-0  00000-0 0  9998
2 41330  65.5696  15.4709 0007873 208.0220 349.3677  2.13102965 41435
COSMOS 2516 (753)       
1 41554U 16032A   21155.48815620 -.00000046  00000-0  00000-0 0  9990
2 41554  64.0002 254.5971 0013649 215.0156 221.4824  2.13107057 39044
COSMOS 2522 (752)       
1 42939U 17055A   21155.86652424 -.00000045  00000-0  00000-0 0  9996
2 42939  64.2339 254.8682 0007298 241.6875 348.3955  2.13101916 28809
COSMOS 2527 (756)       
1 43508U 18053A   21155.38898950  .00000076  00000-0  00000-0 0  9994
2 43508  64.9011 135.5059 0009431 243.9583  11.8611  2.13102562 23085
COSMOS 2529 (757)       
1 43687U 18086A   21155.45667690 -.00000047  00000-0  00000-0 0  9990
2 43687  64.4486 255.0959 0009220 266.9804 324.2398  2.13102091 20108
COSMOS 2534 (758)       
1 44299U 19030A   21155.52649434 -.00000046  00000-0  00000-0 0  9993
2 44299  64.5191 254.9440 0012116 288.4647 131.1637  2.13102115 15750
COSMOS 2544 (759)       
1 44850U 19088A   21155.86509282  .00000073  00000-0  00000-0 0  9991
2 44850  64.8870 135.3507 0014130 266.3948  38.4424  2.13102190 11531
COSMOS 2545 (760)       
1 45358U 20018A   21154.51612530 -.00000080  00000-0  00000-0 0  9991
2 45358  64.9008  16.4259 0006922 255.4056 304.5787  2.13102773  9455
